{
  "norad_id": 61058,
  "name": "STARLINK-11299 [DTC]",
  "history": [
    {
      "epoch": "2026-03-28T15:44:20.063328Z",
      "apogee_km": 360.3200607087074,
      "perigee_km": 359.12745935418206,
      "latitude_deg": 5.27584288426402e-06,
      "longitude_deg": 155.91399697821186,
      "height_km": 360.48675806511557,
      "semi_major_axis_km": 6737.860760031444,
      "eccentricity": 8.85e-05,
      "inclination_deg": 53.1593,
      "raan_deg": 218.0707,
      "arg_perigee_deg": 75.3403,
      "mean_anomaly_deg": 284.7713,
      "mean_motion_rev_day": 15.69711045
    }
  ]
}